[{"lat":-6.1859889,"lng":106.7353186,"name":"RSU PURI INDAH PONDOK INDAH","amenity":"hospital"},{"lat":-6.1683669,"lng":106.7651412,"name":"RS GRHA KEDOYA","amenity":"hospital"},{"lat":-6.1504414,"lng":106.825941,"name":"RS MANUELA","amenity":"hospital"},{"lat":-6.1766462,"lng":106.8372815,"name":"RSPAD GATOT SUBROTO","amenity":"hospital"},{"lat":-6.1973116,"lng":106.7926441,"name":"RSU PATRIA JAKARTA","amenity":"hospital"},{"lat":-6.1898118,"lng":106.8293431,"name":"RSUD ABDI WALUYO","amenity":"hospital"},{"lat":-6.1665351,"lng":106.7852311,"name":"RSU ROYAL TARUMA","amenity":"hospital"},{"lat":-6.1910555,"lng":106.8144549,"name":"RSUD TANAH ABANG","amenity":"hospital"},{"lat":-6.1567123,"lng":106.8637725,"name":"RSUD KEMAYORAN","amenity":"hospital"},{"lat":-6.1969653,"lng":106.8468102,"name":"RSUPN dr. CIPTO MANGUNKUSOMO","amenity":"hospital"},{"lat":-6.1731387,"lng":106.8758643,"name":"RS PERTAMINA JAYA","amenity":"hospital"},{"lat":-6.1935611,"lng":106.8598631,"name":"RS PRIMAYA EVASARI","amenity":"hospital"},{"lat":-6.2108836,"lng":106.811964,"name":"RSAL dr. MINTOHARDJO","amenity":"hospital"},{"lat":-6.1489027,"lng":106.8298217,"name":"RSUD SAWAH BESAR","amenity":"hospital"},{"lat":-6.1521122,"lng":106.8585957,"name":"RS MITRA KELUARGA KEMAYORAN","amenity":"hospital"},{"lat":-6.1958347,"lng":106.8517604,"name":"RS ST. CAROLUS","amenity":"hospital"},{"lat":-6.2941394,"lng":106.8199641,"name":"RSUD PASAR MINGGU","amenity":"hospital"},{"lat":-6.1542245,"lng":106.8456843,"name":"RS HERMINA KEMAYORAN","amenity":"hospital"},{"lat":-6.2655496,"lng":106.7986721,"name":"RSUD KEBAYORAN BARU","amenity":"hospital"},{"lat":-6.1936527,"lng":106.8520454,"name":"RS RADJAK SALEMBA","amenity":"hospital"},{"lat":-6.1856105,"lng":106.8439659,"name":"RS KRAMAT 128","amenity":"hospital"},{"lat":-6.3161758,"lng":106.8113627,"name":"RSUD JAGAKARSA","amenity":"hospital"},{"lat":-6.2095279,"lng":106.8193331,"name":"RS MURNI TEGUH SUDIRMAN JAKARTA","amenity":"hospital"},{"lat":-6.2581316,"lng":106.7567132,"name":"RSUD PESANGGRAHAN","amenity":"hospital"},{"lat":-6.2316371,"lng":106.8466802,"name":"RSUD TEBET","amenity":"hospital"},{"lat":-6.1474995,"lng":106.829499,"name":"RS HUSADA","amenity":"hospital"},{"lat":-6.2855018,"lng":106.8423101,"name":"RSUD JATI PADANG","amenity":"hospital"},{"lat":-6.2487063,"lng":106.785659,"name":"RSUD KEBAYORAN LAMA","amenity":"hospital"},{"lat":-6.2404652,"lng":106.8269643,"name":"RSUD MAMPANG PRAPATAN","amenity":"hospital"},{"lat":-6.2673998,"lng":106.7666233,"name":"RS DR. SUTOYO PUSREHAB KEMHAN","amenity":"hospital"},{"lat":-6.2401658,"lng":106.7929683,"name":"RS PUSAT PERTAMINA","amenity":"hospital"},{"lat":-6.2427408,"lng":106.8501648,"name":"RS TEBET","amenity":"hospital"},{"lat":-6.254542,"lng":106.8323327,"name":"RS SILOAM ASRI","amenity":"hospital"},{"lat":-6.2922458,"lng":106.7843724,"name":"RS SILOAM TB SIMATUPANG","amenity":"hospital"},{"lat":-6.2199712,"lng":106.8324591,"name":"RS METROPOLITAN MEDICAL CENTER (MMC) JAKARTA","amenity":"hospital"},{"lat":-6.2245705,"lng":106.8480329,"name":"RS BRAWIJAYA SAHARJO","amenity":"hospital"},{"lat":-6.2091793,"lng":106.8463579,"name":"RS AGUNG","amenity":"hospital"},{"lat":-6.2713208,"lng":106.8302102,"name":"RS JAKARTA MEDICAL CENTER","amenity":"hospital"},{"lat":-6.2185271,"lng":106.8318222,"name":"RS MAYAPADA KUNINGAN","amenity":"hospital"},{"lat":-6.2860998,"lng":106.8159371,"name":"RS HARAPAN KARTINI","amenity":"hospital"},{"lat":-6.2439271,"lng":106.7907444,"name":"RS GANDARIA","amenity":"hospital"},{"lat":-6.250886,"lng":106.8419482,"name":"RS TRIA DIPA","amenity":"hospital"},{"lat":-6.2417055,"lng":106.7871369,"name":"RS MUHAMMADIYAH TAMAN PURING","amenity":"hospital"},{"lat":-6.3345083,"lng":106.8273883,"name":"RS AULIA","amenity":"hospital"},{"lat":-6.3048414,"lng":106.810618,"name":"RS MARINIR CILANDAK","amenity":"hospital"},{"lat":-6.2184766,"lng":106.8161444,"name":"RS JAKARTA","amenity":"hospital"},{"lat":-6.2812583,"lng":106.7958226,"name":"RS SETIA MITRA","amenity":"hospital"},{"lat":-6.3145283,"lng":106.7941837,"name":"RS PRIKASIH","amenity":"hospital"},{"lat":-6.2398422,"lng":106.8336631,"name":"RS MEDISTRA","amenity":"hospital"},{"lat":-6.192682,"lng":106.9026992,"name":"RS ANTAM MEDIKA","amenity":"hospital"},{"lat":-6.2368522,"lng":106.7517244,"name":"RS PETUKANGAN","amenity":"hospital"},{"lat":-6.2838411,"lng":106.7815932,"name":"RS PONDOK INDAH","amenity":"hospital"},{"lat":-6.2868679,"lng":106.8622797,"name":"RSUD KRAMAT JATI","amenity":"hospital"},{"lat":-6.2898814,"lng":106.8891492,"name":"RS HAJI JAKARTA","amenity":"hospital"},{"lat":-6.2950564,"lng":106.7964535,"name":"RSUP FATMAWATI","amenity":"hospital"},{"lat":-6.1821493,"lng":106.891082,"name":"RSKB COLUMBIA ASIA PULOMAS","amenity":"hospital"},{"lat":-6.3455971,"lng":106.8738712,"name":"RSUD CIRACAS","amenity":"hospital"},{"lat":-6.2062623,"lng":106.8660138,"name":"RSUD MATRAMAN","amenity":"hospital"},{"lat":-6.2550734,"lng":106.7777289,"name":"RS YADIKA KEBAYORAN LAMA","amenity":"hospital"},{"lat":-6.3033892,"lng":106.8618752,"name":"RSUD PASAR REBO","amenity":"hospital"},{"lat":-6.2573733,"lng":106.8918558,"name":"RSAU DR. ESNAWAN ANTARIKSA","amenity":"hospital"},{"lat":-6.2560273,"lng":106.862978,"name":"RSUD BUDHI ASIH","amenity":"hospital"},{"lat":-6.2696092,"lng":106.8711147,"name":"RS BHAYANGKARA RADEN SAID SUKANTO","amenity":"hospital"},{"lat":-6.2942592,"lng":106.8825824,"name":"RS RIDWAN MOREKSA","amenity":"hospital"},{"lat":-6.3078316,"lng":106.8927312,"name":"RS ADHYAKSA","amenity":"hospital"},{"lat":-6.2371953,"lng":106.8991335,"name":"RS YADIKA PONDOK BAMBU","amenity":"hospital"},{"lat":-6.2215235,"lng":106.8644361,"name":"RS HERMINA JATINEGARA","amenity":"hospital"},{"lat":-6.2026878,"lng":106.8847484,"name":"RSUP PERSAHABATAN","amenity":"hospital"},{"lat":-6.3029512,"lng":106.8680213,"name":"RS HARAPAN BUNDA","amenity":"hospital"},{"lat":-6.1960084,"lng":106.8863978,"name":"RS DHARMA NUGRAHA","amenity":"hospital"},{"lat":-6.1948769,"lng":106.9062814,"name":"RS HARAPAN JAYAKARTA","amenity":"hospital"},{"lat":-6.3073687,"lng":106.8589442,"name":"RS KESDAM JAYA CIJANTUNG","amenity":"hospital"},{"lat":-6.2200191,"lng":106.9396181,"name":"RS ISLAM JAKARTA PONDOK KOPI","amenity":"hospital"},{"lat":-6.1328308,"lng":106.8402507,"name":"RSUD PADEMANGAN","amenity":"hospital"},{"lat":-6.1759668,"lng":106.8848922,"name":"RS KARTIKA PULOMAS","amenity":"hospital"},{"lat":-6.116082,"lng":106.8888254,"name":"RSUD TANJUNG PRIOK","amenity":"hospital"},{"lat":-6.1118898,"lng":106.7527392,"name":"RSU PANTAI INDAH KAPUK","amenity":"hospital"},{"lat":-6.2481403,"lng":106.9096007,"name":"RS HARUM SISMA MEDIKA","amenity":"hospital"},{"lat":-6.2506392,"lng":106.8719111,"name":"RS UNIVERSITAS KRISTEN INDONESIA","amenity":"hospital"},{"lat":-6.1802378,"lng":106.8837433,"name":"RS EMC PULOMAS","amenity":"hospital"},{"lat":-6.2216981,"lng":106.8686714,"name":"RS PREMIER JATINEGARA","amenity":"hospital"},{"lat":-6.2149417,"lng":106.8837596,"name":"RS PENGAYOMAN CIPINANG","amenity":"hospital"},{"lat":-6.1798914,"lng":106.9036994,"name":"RS MEDIROS","amenity":"hospital"},{"lat":-6.112986,"lng":106.9262566,"name":"RSUD CILINCING","amenity":"hospital"},{"lat":-6.1089322,"lng":106.8996682,"name":"RSUD KOJA","amenity":"hospital"},{"lat":-6.1384133,"lng":106.7837975,"name":"RS DUTA INDAH","amenity":"hospital"},{"lat":-6.1249202,"lng":106.9178262,"name":"RS PELABUHAN JAKARTA","amenity":"hospital"},{"lat":-6.276816,"lng":106.8694697,"name":"RS PUSDIKKES","amenity":"hospital"},{"lat":-6.1394322,"lng":106.865455,"name":"RS ROYAL PROGRESS","amenity":"hospital"},{"lat":-6.1274896,"lng":106.906859,"name":"RSUD TUGU KOJA","amenity":"hospital"},{"lat":-6.1455694,"lng":106.8613627,"name":"RS HERMINA PODOMORO","amenity":"hospital"},{"lat":-6.1264458,"lng":106.7926902,"name":"RS ATMA JAYA","amenity":"hospital"},{"lat":-6.1291818,"lng":106.890191,"name":"RS PURI MEDIKA","amenity":"hospital"},{"lat":-6.1560003,"lng":106.9230147,"amenity":"hospital"},{"lat":-6.1290752,"lng":106.9064976,"name":"RSU MULYASARI","amenity":"hospital"},{"lat":-6.1518139,"lng":106.89704,"name":"RS MITRA KELUARGA KELAPA GADING","amenity":"hospital"},{"lat":-6.166093,"lng":106.9159241,"name":"RSU GADING PLUIT","amenity":"hospital"},{"lat":-6.1103582,"lng":106.8893777,"name":"RSU PORT MEDICAL CENTER","amenity":"hospital"},{"lat":-6.1397437,"lng":106.9208253,"name":"RS ISLAM JAKARTA SUKAPURA","amenity":"hospital"},{"lat":-6.1120721,"lng":106.8820012,"name":"RS SUKMUL SISMA MEDIKA","amenity":"hospital"}]