[{"lat":-6.145254,"lng":106.9232026,"name":"RSU PEKERJA","amenity":"hospital"},{"lat":-6.1257296,"lng":106.7994919,"name":"RS PLUIT","amenity":"hospital"},{"lat":-6.1388457,"lng":106.8615552,"name":"RS SATYA NEGARA","amenity":"hospital"},{"lat":-6.1695039,"lng":106.7728529,"name":"Vetgo Veterinary","amenity":"veterinary"},{"lat":-6.1988563,"lng":106.8513704,"name":"Klinik Pratama Perpustakaan Nasional RI","amenity":"clinic"},{"lat":-6.305861,"lng":106.840547,"name":"Guardian","amenity":"pharmacy"},{"lat":-6.3066928,"lng":106.8399891,"name":"Kidzoona","amenity":"nursing_home"},{"lat":-6.3056131,"lng":106.8406141,"name":"Happy Dental Clinic","amenity":"dentist"},{"lat":-6.3026969,"lng":106.8144344,"name":"Apotek K-24","amenity":"pharmacy"},{"lat":-6.132484,"lng":106.8645669,"name":"Klinik Pratama Paradise","amenity":"clinic"},{"lat":-6.2489273,"lng":106.8605451},{"lat":-6.3103002,"lng":106.88053},{"lat":-6.310419,"lng":106.8805945},{"lat":-6.3104331,"lng":106.8807785},{"lat":-6.3103909,"lng":106.8807077},{"lat":-6.3103733,"lng":106.8803821}]